ONEWEB-0365             
1 49291U 21090N   26160.15012170 -.00000015  00000+0 -69397-4 0  9994
2 49291  87.9173 306.5677 0001761  98.1657 261.9675 13.19724089225365
ONEWEB-0366             
1 49292U 21090P   26160.29128586  .00000078  00000+0  17557-3 0  9996
2 49292  87.8957 291.2806 0001926  99.9462 260.1885 13.14502069226525
ONEWEB-0367             
1 49293U 21090Q   26160.28447213  .00001419  00000+0  34574-2 0  9994
2 49293  87.9195 276.0155 0001839 105.3512 254.7825 13.20782599228788
ONEWEB-0368             
1 49294U 21090R   26160.03107619  .00000053  00000+0  98488-4 0  9990
2 49294  87.9178 276.0773 0001637  79.0122 281.1196 13.20769985229900
ONEWEB-0369             
1 49295U 21090S   26160.14538695  .00000007  00000+0 -14026-4 0  9991
2 49295  87.9163 306.5770 0001776  95.5509 264.5826 13.19724216225353
ONEWEB-0370             
1 49296U 21090T   26160.29370487  .00000032  00000+0  45648-4 0  9992
2 49296  87.9191 276.0133 0002102 107.5172 252.6192 13.20770259228822
ONEWEB-0371             
1 49297U 21090U   26160.30490976 -.00000010  00000+0 -56537-4 0  9998
2 49297  87.9170 306.5368 0001793 100.2474 259.8861 13.19724284225418
ONEWEB-0372             
1 49298U 21090V   26160.28346899  .00000022  00000+0  22201-4 0  9992
2 49298  87.9190 276.0170 0001908 101.1170 259.0178 13.20771240228797
ONEWEB-0373             
1 49299U 21090W   26160.30886549  .00000024  00000+0  28144-4 0  9991
2 49299  87.9188 276.0125 0002027 100.3469 259.7893 13.20771111229980
ONEWEB-0374             
1 49300U 21090X   26160.27860403  .00000264  00000+0  67870-3 0  9995
2 49300  87.8961 291.2736 0002281  87.6208 272.5183 13.14502877226524
ONEWEB-0375             
1 49301U 21090Y   26160.29708650  .00000081  00000+0  16696-3 0  9990
2 49301  87.9192 276.0062 0002403  90.4671 269.6738 13.20771805229484
ONEWEB-0376             
1 49302U 21090Z   26160.15169944 -.00000047  00000+0 -14941-3 0  9998
2 49302  87.9173 306.5671 0001647  97.6483 262.4837 13.19724977225391
ONEWEB-0377             
1 49303U 21090AA  26160.28376032  .00000055  00000+0  10287-3 0  9997
2 49303  87.9191 276.0110 0002165 100.4827 259.6550 13.20772194229471
ONEWEB-0378             
1 49304U 21090AB  26160.30394338  .00000099  00000+0  21129-3 0  9995
2 49304  87.9186 276.0121 0001998  96.3552 263.7809 13.20770297228743
ONEWEB-0379             
1 49305U 21090AC  26160.27384036  .00000208  00000+0  52776-3 0  9990
2 49305  87.8959 291.2856 0001902  95.6007 264.5340 13.14502831226520
ONEWEB-0380             
1 49306U 21090AD  26160.14854911 -.00000051  00000+0 -16090-3 0  9998
2 49306  87.9163 306.5736 0002056  97.8676 262.2691 13.19724277225363
ONEWEB-0381             
1 49307U 21090AE  26160.28025351  .00000111  00000+0  24159-3 0  9992
2 49307  87.9192 276.0162 0002132  94.3604 265.7773 13.20771882228782
ONEWEB-0382             
1 49308U 21090AF  26159.88798014  .00000062  00000+0  12060-3 0  9993
2 49308  87.9188 276.0889 0002063  92.4068 267.7302 13.20769455228727
ONEWEB-0383             
1 49309U 21090AG  26160.26747830  .00000235  00000+0  59835-3 0  9991
2 49309  87.8963 291.2779 0001853  94.7419 265.3922 13.14505183226556
ONEWEB-0384             
1 49310U 21090AH  26160.25566131  .00000122  00000+0  26752-3 0  9992
2 49310  87.9192 276.0589 0002089  87.4050 272.7322 13.20812383228788
ONEWEB-0385             
1 49311U 21090AJ  26160.03278266  .00000084  00000+0  17498-3 0  9992
2 49311  87.9189 276.0652 0002036  94.7394 265.3972 13.20772305228722
ONEWEB-0386             
1 49312U 21090AK  26160.27688581  .00000033  00000+0  48021-4 0  9995
2 49312  87.9193 276.0071 0001989  92.6624 267.4737 13.20771209228771
ONEWEB-0387             
1 49313U 21090AL  26160.03446552  .00000041  00000+0  69730-4 0  9999
2 49313  87.9178 276.0786 0002308  98.5898 261.5497 13.20772196228743
ONEWEB-0388             
1 49314U 21090AM  26160.14381149  .00000007  00000+0 -15875-4 0  9996
2 49314  87.9164 306.5727 0001917  93.1004 267.0348 13.19724192225359
ONEWEB-0389             
1 50469U 21132A   26160.07354362  .00000022  00000+0  24195-4 0  9996
2 50469  87.9138   7.4827 0002203  84.0651 276.0732 13.17647773217015
ONEWEB-0390             
1 50470U 21132B   26160.07523034  .00000062  00000+0  12610-3 0  9994
2 50470  87.9138   7.4832 0001904  93.7455 266.3894 13.17648273217016
ONEWEB-0391             
1 50471U 21132C   26160.07691922  .00000025  00000+0  31844-4 0  9997
2 50471  87.9138   7.4924 0002686  90.7736 269.3704 13.17647750217018
ONEWEB-0392             
1 50472U 21132D   26160.10730162  .00000075  00000+0  15923-3 0  9996
2 50472  87.9150   7.4538 0002221  85.5285 274.6100 13.17648430217059
ONEWEB-0393             
1 50473U 21132E   26160.08283132 -.00000031  00000+0 -11403-3 0  9997
2 50473  87.9140   7.4769 0002050  86.3831 273.7535 13.17649028217046
ONEWEB-0394             
1 50474U 21132F   26160.20694388  .00000095  00000+0  20781-3 0  9998
2 50474  87.9167 337.0302 0002034  87.1635 272.9730 13.18684402220547
