OBJECT_NAME,OBJECT_ID,EPOCH,MEAN_MOTION,ECCENTRICITY,INCLINATION,RA_OF_ASC_NODE,ARG_OF_PERICENTER,MEAN_ANOMALY,EPHEMERIS_TYPE,CLASSIFICATION_TYPE,NORAD_CAT_ID,ELEMENT_SET_NO,REV_AT_EPOCH,BSTAR,MEAN_MOTION_DOT,MEAN_MOTION_DDOT
ONEWEB-0365,2021-090N,2026-06-09T03:36:10.514880,13.19724089,.00017613,87.9173,306.5677,98.1657,261.9675,0,U,49291,999,22536,-.69396968E-4,-.15E-6,0
ONEWEB-0366,2021-090P,2026-06-09T06:59:27.098304,13.14502069,.00019265,87.8957,291.2806,99.9462,260.1885,0,U,49292,999,22652,.17557262E-3,.78E-6,0
ONEWEB-0367,2021-090Q,2026-06-09T06:49:38.392032,13.20782599,.00018398,87.9195,276.0155,105.3512,254.7825,0,U,49293,999,22878,.34573655E-2,.1419E-4,0
ONEWEB-0368,2021-090R,2026-06-09T00:44:44.982816,13.20769985,.00016378,87.9178,276.0773,79.0122,281.1196,0,U,49294,999,22990,.98487844E-4,.53E-6,0
ONEWEB-0369,2021-090S,2026-06-09T03:29:21.432480,13.19724216,.00017766,87.9163,306.5770,95.5509,264.5826,0,U,49295,999,22535,-.14026308E-4,.7E-7,0
ONEWEB-0370,2021-090T,2026-06-09T07:02:56.100768,13.20770259,.00021024,87.9191,276.0133,107.5172,252.6192,0,U,49296,999,22882,.45647833E-4,.32E-6,0
ONEWEB-0371,2021-090U,2026-06-09T07:19:04.203264,13.19724284,.00017933,87.9170,306.5368,100.2474,259.8861,0,U,49297,999,22541,-.56536782E-4,-.1E-6,0
ONEWEB-0372,2021-090V,2026-06-09T06:48:11.720736,13.20771240,.00019089,87.9190,276.0170,101.1170,259.0178,0,U,49298,999,22879,.22201142E-4,.22E-6,0
ONEWEB-0373,2021-090W,2026-06-09T07:24:45.978336,13.20771111,.00020277,87.9188,276.0125,100.3469,259.7893,0,U,49299,999,22998,.28143517E-4,.24E-6,0
ONEWEB-0374,2021-090X,2026-06-09T06:41:11.388192,13.14502877,.00022813,87.8961,291.2736,87.6208,272.5183,0,U,49300,999,22652,.67869582E-3,.264E-5,0
ONEWEB-0375,2021-090Y,2026-06-09T07:07:48.273600,13.20771805,.00024033,87.9192,276.0062,90.4671,269.6738,0,U,49301,999,22948,.16695857E-3,.81E-6,0
ONEWEB-0376,2021-090Z,2026-06-09T03:38:26.831616,13.19724977,.00016472,87.9173,306.5671,97.6483,262.4837,0,U,49302,999,22539,-.14941158E-3,-.47E-6,0
ONEWEB-0377,2021-090AA,2026-06-09T06:48:36.891648,13.20772194,.00021655,87.9191,276.0110,100.4827,259.6550,0,U,49303,999,22947,.10287145E-3,.55E-6,0
ONEWEB-0378,2021-090AB,2026-06-09T07:17:40.708032,13.20770297,.00019988,87.9186,276.0121,96.3552,263.7809,0,U,49304,999,22874,.21129267E-3,.99E-6,0
ONEWEB-0379,2021-090AC,2026-06-09T06:34:19.807104,13.14502831,.00019022,87.8959,291.2856,95.6007,264.5340,0,U,49305,999,22652,.5277636E-3,.208E-5,0
ONEWEB-0380,2021-090AD,2026-06-09T03:33:54.643104,13.19724277,.00020567,87.9163,306.5736,97.8676,262.2691,0,U,49306,999,22536,-.16089572E-3,-.51E-6,0
ONEWEB-0381,2021-090AE,2026-06-09T06:43:33.903264,13.20771882,.00021323,87.9192,276.0162,94.3604,265.7773,0,U,49307,999,22878,.24159162E-3,.111E-5,0
ONEWEB-0382,2021-090AF,2026-06-08T21:18:41.484096,13.20769455,.0002063,87.9188,276.0889,92.4068,267.7302,0,U,49308,999,22872,.12060168E-3,.62E-6,0
ONEWEB-0383,2021-090AG,2026-06-09T06:25:10.125120,13.14505183,.0001853,87.8963,291.2779,94.7419,265.3922,0,U,49309,999,22655,.59835496E-3,.235E-5,0
ONEWEB-0384,2021-090AH,2026-06-09T06:08:09.137184,13.20812383,.0002089,87.9192,276.0589,87.4050,272.7322,0,U,49310,999,22878,.26752465E-3,.122E-5,0
ONEWEB-0385,2021-090AJ,2026-06-09T00:47:12.421824,13.20772305,.00020364,87.9189,276.0652,94.7394,265.3972,0,U,49311,999,22872,.1749825E-3,.84E-6,0
ONEWEB-0386,2021-090AK,2026-06-09T06:38:42.933984,13.20771209,.00019893,87.9193,276.0071,92.6624,267.4737,0,U,49312,999,22877,.48020697E-4,.33E-6,0
ONEWEB-0387,2021-090AL,2026-06-09T00:49:37.820928,13.20772196,.00023084,87.9178,276.0786,98.5898,261.5497,0,U,49313,999,22874,.6972991E-4,.41E-6,0
ONEWEB-0388,2021-090AM,2026-06-09T03:27:05.312736,13.19724192,.0001917,87.9164,306.5727,93.1004,267.0348,0,U,49314,999,22535,-.15875481E-4,.7E-7,0
ONEWEB-0389,2021-132A,2026-06-09T01:45:54.168768,13.17647773,.00022031,87.9138,7.4827,84.0651,276.0732,0,U,50469,999,21701,.24195204E-4,.22E-6,0
ONEWEB-0390,2021-132B,2026-06-09T01:48:19.901376,13.17648273,.00019043,87.9138,7.4832,93.7455,266.3894,0,U,50470,999,21701,.1261022E-3,.62E-6,0
ONEWEB-0391,2021-132C,2026-06-09T01:50:45.820608,13.17647750,.00026862,87.9138,7.4924,90.7736,269.3704,0,U,50471,999,21701,.31844204E-4,.25E-6,0
ONEWEB-0392,2021-132D,2026-06-09T02:34:30.859968,13.17648430,.00022211,87.9150,7.4538,85.5285,274.6100,0,U,50472,999,21705,.15923172E-3,.75E-6,0
ONEWEB-0393,2021-132E,2026-06-09T01:59:16.626048,13.17649028,.00020503,87.9140,7.4769,86.3831,273.7535,0,U,50473,999,21704,-.1140308E-3,-.31E-6,0
ONEWEB-0394,2021-132F,2026-06-09T04:57:59.951232,13.18684402,.00020344,87.9167,337.0302,87.1635,272.9730,0,U,50474,999,22054,.20780834E-3,.95E-6,0
